[Satellite]
VERSION=1.1
NAME=STF-1
NICKNAME=STF-1
TLE1=1 43852U 18104D   20157.57262604  .00000998  00000-0  42711-4 0  9998
TLE2=2 43852  85.0338 183.7418 0016639 123.3127 236.9711 15.21263741 81647
STATUS=0
